NORAD_CAT_ID,OBJECT_NAME,OBJECT_TYPE,EPOCH,MEAN_MOTION,ECCENTRICITY,INCLINATION,RA_OF_ASC_NODE,ARG_OF_PERICENTER,MEAN_ANOMALY,BSTAR,MEAN_MOTION_DOT,MEAN_MOTION_DDOT,TLE_LINE0,TLE_LINE1,TLE_LINE2,SEMIMAJOR_AXIS,PERIOD,APOGEE,PERIGEE,DECAYED
52367.0,STARLINK-3817,PAYLOAD,2024-06-10 06:53:51,15.08843247,8.77e-05,53.2161,170.5304,90.7212,269.388,5.0168e-05,5.11e-06,0.0,0 STARLINK-3817,1 52367U 22045AN  24162.28739590  .00000511  00000-0  50168-4 0  9995,2 52367  53.2161 170.5304 0000877  90.7212 269.3880 15.08843247119690,6917.87,95.437,540.342,539.129,0.0
52367.0,STARLINK-3817,PAYLOAD,2024-06-10 18:01:33,15.08832034,8.24e-05,53.2159,168.4479,90.6469,269.4617,-1.3408e-05,-5.01e-06,0.0,0 STARLINK-3817,1 52367U 22045AN  24162.75108546 -.00000501  00000-0 -13408-4 0  9995,2 52367  53.2159 168.4479 0000824  90.6469 269.4617 15.08832034119760,6917.905,95.438,540.34,539.2,0.0
52367.0,STARLINK-3817,PAYLOAD,2024-06-11 05:09:16,15.08822599,0.0001307,53.2169,166.3646,113.161,246.952,-1.0742e-05,-4.59e-06,0.0,0 STARLINK-3817,1 52367U 22045AN  24163.21477693 -.00000459  00000-0 -10742-4 0  9999,2 52367  53.2169 166.3646 0001307 113.1610 246.9520 15.08822599119836,6917.934,95.439,540.703,538.894,0.0
52367.0,STARLINK-3817,PAYLOAD,2024-06-11 06:44:39,15.08824456,8.55e-05,53.2164,166.0687,98.8466,261.2623,2.4243e-05,9.8e-07,0.0,0 STARLINK-3817,1 52367U 22045AN  24163.28101577  .00000098  00000-0  24243-4 0  9999,2 52367  53.2164 166.0687 0000855  98.8466 261.2623 15.08824456119847,6917.928,95.439,540.384,539.201,0.0
52367.0,STARLINK-3817,PAYLOAD,2024-06-12 06:35:26,15.08842019,7.2e-05,53.2149,161.6093,82.8336,277.2738,9.9126e-05,1.29e-05,0.0,0 STARLINK-3817,1 52367U 22045AN  24164.27460770  .00001290  00000-0  99126-4 0  9999,2 52367  53.2149 161.6093 0000720  82.8336 277.2738 15.08842019119997,6917.874,95.437,540.237,539.241,0.0
52367.0,STARLINK-3817,PAYLOAD,2024-06-13 04:50:50,15.08813996,7.22e-05,53.2156,157.4466,96.3149,263.7925,0.00072903,0.00011325,0.0,0 STARLINK-3817,1 52367U 22045AN  24165.20197678  .00011325  00000-0  72903-3 0  9990,2 52367  53.2156 157.4466 0000722  96.3149 263.7925 15.08813996120134,6917.96,95.439,540.324,539.325,0.0
52367.0,STARLINK-3817,PAYLOAD,2024-06-13 09:36:58,15.08851356,7.43e-05,53.2157,156.5543,84.2333,275.8744,0.00024449,3.607e-05,0.0,0 STARLINK-3817,1 52367U 22045AN  24165.40068129  .00003607  00000-0  24449-3 0  9996,2 52367  53.2157 156.5543 0000743  84.2333 275.8744 15.08851356120163,6917.846,95.437,540.225,539.197,0.0
52367.0,STARLINK-3817,PAYLOAD,2024-06-13 15:58:31,15.08848922,7.37e-05,53.2143,155.3642,76.714,283.3935,0.00014853,2.078e-05,0.0,0 STARLINK-3817,1 52367U 22045AN  24165.66564384  .00002078  00000-0  14853-3 0  9997,2 52367  53.2143 155.3642 0000737  76.7140 283.3935 15.08848922120206,6917.853,95.437,540.228,539.208,0.0
52367.0,STARLINK-3817,PAYLOAD,2024-06-14 06:16:59,15.08846574,8.45e-05,53.2168,152.6894,84.2591,275.8497,4.7863e-05,4.74e-06,0.0,0 STARLINK-3817,1 52367U 22045AN  24166.26180487  .00000474  00000-0  47863-4 0  9998,2 52367  53.2168 152.6894 0000845  84.2591 275.8497 15.08846574120295,6917.86,95.437,540.31,539.141,0.0
52367.0,STARLINK-3817,PAYLOAD,2024-06-15 07:43:09,15.08847778,8.74e-05,53.2167,147.9326,88.2329,271.8763,1.3925e-05,-6.6e-07,0.0,0 STARLINK-3817,1 52367U 22045AN  24167.32163963 -.00000066  00000-0  13925-4 0  9996,2 52367  53.2167 147.9326 0000874  88.2329 271.8763 15.08847778120453,6917.857,95.437,540.326,539.117,0.0
52367.0,STARLINK-3817,PAYLOAD,2024-06-15 15:40:05,15.08844381,8.54e-05,53.2167,146.4449,93.1482,266.9608,-4.781e-05,-1.049e-05,0.0,0 STARLINK-3817,1 52367U 22045AN  24167.65284202 -.00001049  00000-0 -47810-4 0  9995,2 52367  53.2167 146.4449 0000854  93.1482 266.9608 15.08844381120502,6917.867,95.437,540.323,539.141,0.0
52367.0,STARLINK-3817,PAYLOAD,2024-06-16 05:58:33,15.08840948,9.8e-05,53.2172,143.7698,98.6275,261.4828,3.6844e-05,2.99e-06,0.0,0 STARLINK-3817,1 52367U 22045AN  24168.24900245  .00000299  00000-0  36844-4 0  9992,2 52367  53.2172 143.7698 0000980  98.6275 261.4828 15.08840948120592,6917.877,95.437,540.42,539.065,0.0
52367.0,STARLINK-3817,PAYLOAD,2024-06-16 21:52:25,15.08834359,0.0001094,53.2173,140.7926,86.0463,274.0654,8.4965e-06,-1.53e-06,0.0,0 STARLINK-3817,1 52367U 22045AN  24168.91140878 -.00000153  00000-0  84965-5 0  9992,2 52367  53.2173 140.7926 0001094  86.0463 274.0654 15.08834359120698,6917.898,95.438,540.519,539.006,0.0
52367.0,STARLINK-3817,PAYLOAD,2024-06-17 15:21:39,15.0884009,9.91e-05,53.2171,137.5227,85.1262,274.9843,5.039e-05,5.14e-06,0.0,0 STARLINK-3817,1 52367U 22045AN  24169.64004445  .00000514  00000-0  50390-4 0  9996,2 52367  53.2171 137.5227 0000991  85.1262 274.9843 15.08840090120807,6917.88,95.438,540.431,539.06,0.0
52367.0,STARLINK-3817,PAYLOAD,2024-06-18 04:04:44,15.08844224,9.45e-05,53.2164,135.1439,84.8308,275.2792,9.0177e-05,1.148e-05,0.0,0 STARLINK-3817,1 52367U 22045AN  24170.16996060  .00001148  00000-0  90177-4 0  9999,2 52367  53.2164 135.1439 0000945  84.8308 275.2792 15.08844224120882,6917.867,95.437,540.386,539.079,0.0
52367.0,STARLINK-3817,PAYLOAD,2024-06-18 21:33:59,15.08831441,9.97e-05,53.2171,131.8722,91.3806,268.73,0.00022581,3.307e-05,0.0,0 STARLINK-3817,1 52367U 22045AN  24170.89860340  .00003307  00000-0  22581-3 0  9992,2 52367  53.2171 131.8722 0000997  91.3806 268.7300 15.08831441120992,6917.907,95.438,540.461,539.082,0.0
52367.0,STARLINK-3817,PAYLOAD,2024-06-19 03:55:31,15.08841112,0.0001046,53.217,130.6835,91.0869,269.0243,6.7742e-05,7.91e-06,0.0,0 STARLINK-3817,1 52367U 22045AN  24171.16356267  .00000791  00000-0  67742-4 0  9994,2 52367  53.2170 130.6835 0001046  91.0869 269.0243 15.08841112121037,6917.877,95.437,540.466,539.018,0.0
52367.0,STARLINK-3817,PAYLOAD,2024-06-19 21:24:46,15.08837443,0.0001096,53.2165,127.4124,93.5012,266.6105,-4.7432e-05,-1.043e-05,0.0,0 STARLINK-3817,1 52367U 22045AN  24171.89220889 -.00001043  00000-0 -47432-4 0  9991,2 52367  53.2165 127.4124 0001096  93.5012 266.6105 15.08837443121142,6917.888,95.438,540.511,538.995,0.0
52367.0,STARLINK-3817,PAYLOAD,2024-06-20 03:46:19,15.08836477,0.0001113,53.2171,126.2226,95.453,264.6589,-1.5036e-05,-5.27e-06,0.0,0 STARLINK-3817,1 52367U 22045AN  24172.15716836 -.00000527  00000-0 -15036-4 0  9994,2 52367  53.2171 126.2226 0001113  95.4530 264.6589 15.08836477121189,6917.891,95.438,540.526,538.986,0.0
52367.0,STARLINK-3817,PAYLOAD,2024-06-20 21:15:34,15.08833249,0.0001202,53.2173,122.9515,97.5087,262.6042,-2.5551e-05,-6.94e-06,0.0,0 STARLINK-3817,1 52367U 22045AN  24172.88581269 -.00000694  00000-0 -25551-4 0  9992,2 52367  53.2173 122.9515 0001202  97.5087 262.6042 15.08833249121292,6917.901,95.438,540.598,538.934,0.0
52367.0,STARLINK-3817,PAYLOAD,2024-06-21 06:47:52,15.0883666,0.0001218,53.2172,121.1673,97.3374,262.7756,1.3468e-05,-7.4e-07,0.0,0 STARLINK-3817,1 52367U 22045AN  24173.28325058 -.00000074  00000-0  13468-4 0  9994,2 52367  53.2172 121.1673 0001218  97.3374 262.7756 15.08836660121351,6917.891,95.438,540.598,538.913,0.0
52367.0,STARLINK-3817,PAYLOAD,2024-06-22 05:03:16,15.08839113,0.0001226,53.2175,117.0037,96.658,263.4552,8.1223e-05,1.005e-05,0.0,0 STARLINK-3817,1 52367U 22045AN  24174.21061010  .00001005  00000-0  81223-4 0  9991,2 52367  53.2175 117.0037 0001226  96.6580 263.4552 15.08839113121495,6917.883,95.438,540.596,538.9,0.0
52367.0,STARLINK-3817,PAYLOAD,2024-06-22 19:21:45,15.08834315,0.0001465,53.2187,114.3282,102.3792,257.7364,4.0677e-05,3.59e-06,0.0,0 STARLINK-3817,1 52367U 22045AN  24174.80677680  .00000359  00000-0  40677-4 0  9991,2 52367  53.2187 114.3282 0001465 102.3792 257.7364 15.08834315121581,6917.898,95.438,540.776,538.749,0.0
52367.0,STARLINK-3817,PAYLOAD,2024-06-23 04:54:04,15.08838919,0.0001344,53.2181,112.5442,89.4657,270.6489,7.1534e-05,8.51e-06,0.0,0 STARLINK-3817,1 52367U 22045AN  24175.20421418  .00000851  00000-0  71534-4 0  9995,2 52367  53.2181 112.5442 0001344  89.4657 270.6489 15.08838919121647,6917.884,95.438,540.678,538.819,0.0
52367.0,STARLINK-3817,PAYLOAD,2024-06-24 03:09:28,15.08812052,0.0001575,53.2186,108.3819,81.0861,279.0309,0.00047322,7.246e-05,0.0,0 STARLINK-3817,1 52367U 22045AN  24176.13157707  .00007246  00000-0  47322-3 0  9997,2 52367  53.2186 108.3819 0001575  81.0861 279.0309 15.08812052121783,6917.966,95.439,540.92,538.741,0.0
52367.0,STARLINK-3817,PAYLOAD,2024-06-25 01:24:52,15.08837328,0.0001469,53.2181,104.2173,82.3103,277.8056,-1.2993e-05,-4.95e-06,0.0,0 STARLINK-3817,1 52367U 22045AN  24177.05893974 -.00000495  00000-0 -12993-4 0  9990,2 52367  53.2181 104.2173 0001469  82.3103 277.8056 15.08837328121925,6917.889,95.438,540.77,538.737,0.0
52367.0,STARLINK-3817,PAYLOAD,2024-06-26 01:15:38,15.08849449,0.0001459,53.2177,99.7564,82.1518,277.9639,3.0132e-05,1.92e-06,0.0,0 STARLINK-3817,1 52367U 22045AN  24178.05253014  .00000192  00000-0  30132-4 0  9993,2 52367  53.2177  99.7564 0001459  82.1518 277.9639 15.08849449122071,6917.852,95.437,540.726,538.707,0.0
52367.0,STARLINK-3817,PAYLOAD,2024-06-27 01:06:25,15.08843062,0.0002084,53.2171,95.3048,140.9853,219.1289,2.134e-05,5.1e-07,0.0,0 STARLINK-3817,1 52367U 22045AN  24179.04613063  .00000051  00000-0  21340-4 0  9992,2 52367  53.2171  95.3048 0002084 140.9853 219.1289 15.08843062122225,6917.871,95.437,541.178,538.294,0.0
52367.0,STARLINK-3817,PAYLOAD,2024-06-27 21:46:27,15.08836357,0.0001308,53.2172,91.4304,103.0208,257.093,-2.7606e-05,-7.27e-06,0.0,0 STARLINK-3817,1 52367U 22045AN  24179.90725938 -.00000727  00000-0 -27606-4 0  9995,2 52367  53.2172  91.4304 0001308 103.0208 257.0930 15.08836357122357,6917.892,95.438,540.661,538.852,0.0
52367.0,STARLINK-3817,PAYLOAD,2024-06-28 10:29:31,15.08845441,0.0001281,53.217,89.0538,91.2555,268.8584,-4.6895e-05,-1.034e-05,0.0,0 STARLINK-3817,1 52367U 22045AN  24180.43717375 -.00001034  00000-0 -46895-4 0  9994,2 52367  53.2170  89.0538 0001281  91.2555 268.8584 15.08845441122438,6917.864,95.437,540.615,538.843,0.0
